OBJECT_NAME,OBJECT_ID,EPOCH,MEAN_MOTION,ECCENTRICITY,INCLINATION,RA_OF_ASC_NODE,ARG_OF_PERICENTER,MEAN_ANOMALY,EPHEMERIS_TYPE,CLASSIFICATION_TYPE,NORAD_CAT_ID,ELEMENT_SET_NO,REV_AT_EPOCH,BSTAR,MEAN_MOTION_DOT,MEAN_MOTION_DDOT
STARLINK-5646,2023-015N,2025-10-31T00:03:51.054336,15.02537272,.00011846,43.0044,310.8516,265.1643,94.9064,0,U,55461,999,15124,.20365074E-4,.71E-6,0
STARLINK-5673,2023-015P,2025-10-29T07:45:04.436064,15.02542025,.00010512,43.0053,319.7486,265.4397,94.6326,0,U,55462,999,15099,-.9060707E-5,-.326E-5,0
STARLINK-5677,2023-015Q,2025-10-29T17:27:26.297280,15.02536506,.00009237,43.0051,317.6231,260.1258,99.9480,0,U,55463,999,15105,.9092228E-5,-.81E-6,0
STARLINK-5676,2023-015R,2025-10-29T07:35:29.583168,15.02537750,.00011253,43.0060,319.6990,254.0972,105.9746,0,U,55464,999,15099,-.12876969E-4,-.378E-5,0
STARLINK-5674,2023-015S,2025-10-29T07:40:17.783328,15.02531500,.00013457,43.0037,319.7239,270.2219,89.8469,0,U,55465,999,15099,-.9467774E-5,-.332E-5,0
STARLINK-5628,2023-015T,2025-10-31T00:45:14.314752,15.02536476,.00012851,43.0046,310.2026,261.3360,98.7337,0,U,55466,999,15125,.20226362E-4,.7E-6,0
STARLINK-5679,2023-015U,2025-10-29T07:49:52.421088,15.02538456,.00012035,43.0033,319.7733,269.7348,90.3356,0,U,55467,999,15099,.47805719E-4,.442E-5,0
STARLINK-5672,2023-015V,2025-10-29T07:32:17.421792,15.02537973,.00012348,43.0046,319.6791,267.5722,92.4979,0,U,55468,999,15099,.51485179E-4,.492E-5,0
STARLINK-5681,2023-015W,2025-10-29T07:37:05.436192,15.02537204,.00005633,43.0037,319.7051,253.5778,106.5003,0,U,55469,999,15099,.10153933E-4,-.66E-6,0
STARLINK-5708,2023-015X,2025-10-30T07:21:49.616064,15.02534218,.00012993,43.0048,314.2295,274.3024,85.7670,0,U,55470,999,15114,.9984933E-5,-.69E-6,0
STARLINK-5711,2023-015Y,2025-10-31T00:51:39.345120,15.02535242,.00012054,43.0036,310.2365,275.3971,84.6734,0,U,55471,999,15125,.73276871E-4,.786E-5,0
STARLINK-5705,2023-015Z,2025-10-30T23:14:48.505344,15.02552724,.00013509,43.0042,298.4488,267.7232,92.3456,0,U,55472,999,15138,.13769392E-3,.1658E-4,0
STARLINK-5687,2023-015AA,2025-10-31T08:00:03.000384,15.87552473,.00316377,42.9774,150.7033,219.7267,171.4162,0,U,55473,999,601,.9707204E-3,.275948E-2,.35043934E-4
STARLINK-5689,2023-015AB,2025-10-30T11:22:27.021504,15.02535124,.00011256,43.0038,326.7555,260.4052,99.6663,0,U,55474,999,15101,.29459028E-4,.194E-5,0
STARLINK-5650,2023-015AC,2025-10-31T00:40:26.678784,15.02535708,.00010385,43.0074,310.1799,265.0443,95.0280,0,U,55475,999,15125,.32918425E-4,.241E-5,0
STARLINK-5685,2023-015AE,2025-10-31T00:42:35.083008,15.02532231,.0001239,43.0072,298.0425,262.9618,97.1083,0,U,55477,999,15139,.83261762E-4,.921E-5,0
STARLINK-5691,2023-015AF,2025-10-31T00:40:59.082240,15.02538005,.00011084,43.0053,298.0342,276.4355,83.6361,0,U,55478,999,15139,-.6618993E-5,-.293E-5,0
STARLINK-5688,2023-015AG,2025-10-30T10:33:49.174272,15.02531241,.00012873,43.0046,301.3599,264.7692,95.3004,0,U,55479,999,15130,.36418714E-4,.288E-5,0
STARLINK-5690,2023-015AH,2025-10-29T19:05:58.407360,15.02538123,.00012483,43.0046,330.1784,263.5007,96.5694,0,U,55480,999,15091,.50552078E-4,.479E-5,0
STARLINK-5694,2023-015AJ,2025-10-29T19:18:46.758240,15.02544174,.0001183,43.0050,330.3348,273.5964,86.4743,0,U,55481,999,15091,.12633846E-3,.1504E-4,0
STARLINK-5692,2023-015AL,2025-10-29T09:30:01.514304,15.02547019,.00016172,43.0057,332.4245,276.4873,83.5785,0,U,55483,999,15085,-.32781353E-3,-.463E-4,0
STARLINK-5696,2023-015AM,2025-10-29T12:28:41.652192,15.02538902,.0001105,43.0033,331.6366,268.5826,91.4890,0,U,55484,999,15087,-.47869655E-4,-.85E-5,0
STARLINK-5695,2023-015AN,2025-10-29T19:13:58.744704,15.02540127,.00011375,43.0035,330.3070,261.1892,98.8822,0,U,55485,999,15091,.48696071E-4,.454E-5,0
STARLINK-5704,2023-015AP,2025-10-29T12:31:52.743936,15.02537085,.00012039,43.0052,331.6066,263.2713,96.7992,0,U,55486,999,15087,.1457159E-4,-.7E-7,0
STARLINK-5701,2023-015AQ,2025-10-29T19:15:34.902720,15.02536502,.00010811,43.0055,330.3152,268.7247,91.3472,0,U,55487,999,15091,.23855894E-4,.119E-5,0
STARLINK-5706,2023-015AR,2025-10-29T18:40:23.774880,15.02542890,.00036628,43.0099,330.1250,260.4935,99.5494,0,U,55488,999,15091,.43613022E-4,.385E-5,0
STARLINK-5371,2023-015AS,2025-10-29T18:59:36.107232,15.02534846,.00010393,43.0040,330.2325,264.5704,95.5019,0,U,55489,999,15091,.22350103E-4,.98E-6,0
STARLINK-5373,2023-015AT,2025-10-29T12:33:29.367648,15.02534425,.00008948,43.0043,331.6509,265.4406,94.6335,0,U,55490,999,15087,-.1696088E-4,-.433E-5,0
STARLINK-5364,2023-015AU,2025-10-30T23:21:04.099104,15.02536050,.00013543,43.0028,297.6091,274.8438,85.2250,0,U,55491,999,15139,.20847437E-4,.78E-6,0
STARLINK-5013,2023-015AV,2025-10-29T18:45:12.092544,15.02540108,.00010154,43.0007,330.1523,275.8513,84.2213,0,U,55492,999,15091,.53963585E-4,.526E-5,0
