STARLINK-5646           
1 55461U 23015N   25304.00267424  .00000071  00000+0  20365-4 0  9998
2 55461  43.0044 310.8516 0001184 265.1643  94.9064 15.02537272151242
STARLINK-5673           
1 55462U 23015P   25302.32296801 -.00000326  00000+0 -90607-5 0  9995
2 55462  43.0053 319.7486 0001051 265.4397  94.6326 15.02542025150990
STARLINK-5677           
1 55463U 23015Q   25302.72738770 -.00000081  00000+0  90922-5 0  9993
2 55463  43.0051 317.6231 0000923 260.1258  99.9480 15.02536506151053
STARLINK-5676           
1 55464U 23015R   25302.31631462 -.00000378  00000+0 -12877-4 0  9991
2 55464  43.0060 319.6990 0001125 254.0972 105.9746 15.02537750150995
STARLINK-5674           
1 55465U 23015S   25302.31965027 -.00000332  00000+0 -94678-5 0  9999
2 55465  43.0037 319.7239 0001345 270.2219  89.8469 15.02531500150994
STARLINK-5628           
1 55466U 23015T   25304.03141568  .00000070  00000+0  20226-4 0  9991
2 55466  43.0046 310.2026 0001285 261.3360  98.7337 15.02536476151256
STARLINK-5679           
1 55467U 23015U   25302.32630117  .00000442  00000+0  47806-4 0  9991
2 55467  43.0033 319.7733 0001203 269.7348  90.3356 15.02538456150999
STARLINK-5672           
1 55468U 23015V   25302.31409053  .00000492  00000+0  51485-4 0  9997
2 55468  43.0046 319.6791 0001234 267.5722  92.4979 15.02537973150990
STARLINK-5681           
1 55469U 23015W   25302.31742403 -.00000066  00000+0  10154-4 0  9993
2 55469  43.0037 319.7051 0000563 253.5778 106.5003 15.02537204150993
STARLINK-5708           
1 55470U 23015X   25303.30682426 -.00000069  00000+0  99849-5 0  9995
2 55470  43.0048 314.2295 0001299 274.3024  85.7670 15.02534218151147
STARLINK-5711           
1 55471U 23015Y   25304.03587205  .00000786  00000+0  73277-4 0  9997
2 55471  43.0036 310.2365 0001205 275.3971  84.6734 15.02535242151257
STARLINK-5705           
1 55472U 23015Z   25303.96861696  .00001658  00000+0  13769-3 0  9996
2 55472  43.0042 298.4488 0001350 267.7232  92.3456 15.02552724151389
STARLINK-5687           
1 55473U 23015AA  25304.33336806  .00275948  35044-4  97072-3 0  9994
2 55473  42.9774 150.7033 0031637 219.7267 171.4162 15.87552473  6018
STARLINK-5689           
1 55474U 23015AB  25303.47392386  .00000194  00000+0  29459-4 0  9997
2 55474  43.0038 326.7555 0001125 260.4052  99.6663 15.02535124151011
STARLINK-5650           
1 55475U 23015AC  25304.02808656  .00000241  00000+0  32918-4 0  9999
2 55475  43.0074 310.1799 0001038 265.0443  95.0280 15.02535708151256
STARLINK-5685           
1 55477U 23015AE  25304.02957272  .00000921  00000+0  83262-4 0  9993
2 55477  43.0072 298.0425 0001239 262.9618  97.1083 15.02532231151396
STARLINK-5691           
1 55478U 23015AF  25304.02846160 -.00000293  00000+0 -66190-5 0  9993
2 55478  43.0053 298.0342 0001108 276.4355  83.6361 15.02538005151391
STARLINK-5688           
1 55479U 23015AG  25303.44015248  .00000288  00000+0  36419-4 0  9996
2 55479  43.0046 301.3599 0001287 264.7692  95.3004 15.02531241151308
STARLINK-5690           
1 55480U 23015AH  25302.79581490  .00000479  00000+0  50552-4 0  9998
2 55480  43.0046 330.1784 0001248 263.5007  96.5694 15.02538123150910
STARLINK-5694           
1 55481U 23015AJ  25302.80470785  .00001504  00000+0  12634-3 0  9993
2 55481  43.0050 330.3348 0001183 273.5964  86.4743 15.02544174150911
STARLINK-5692           
1 55483U 23015AL  25302.39585086 -.00004630  00000+0 -32781-3 0  9990
2 55483  43.0057 332.4245 0001617 276.4873  83.5785 15.02547019150850
STARLINK-5696           
1 55484U 23015AM  25302.51992653 -.00000850  00000+0 -47870-4 0  9993
2 55484  43.0033 331.6366 0001105 268.5826  91.4890 15.02538902150870
STARLINK-5695           
1 55485U 23015AN  25302.80137436  .00000454  00000+0  48696-4 0  9991
2 55485  43.0035 330.3070 0001137 261.1892  98.8822 15.02540127150911
STARLINK-5704           
1 55486U 23015AP  25302.52213824 -.00000007  00000+0  14572-4 0  9998
2 55486  43.0052 331.6066 0001203 263.2713  96.7992 15.02537085150878
STARLINK-5701           
1 55487U 23015AQ  25302.80248730  .00000119  00000+0  23856-4 0  9992
2 55487  43.0055 330.3152 0001081 268.7247  91.3472 15.02536502150912
STARLINK-5706           
1 55488U 23015AR  25302.77805295  .00000385  00000+0  43613-4 0  9992
2 55488  43.0099 330.1250 0003662 260.4935  99.5494 15.02542890150919
STARLINK-5371           
1 55489U 23015AS  25302.79139013  .00000098  00000+0  22350-4 0  9999
2 55489  43.0040 330.2325 0001039 264.5704  95.5019 15.02534846150916
STARLINK-5373           
1 55490U 23015AT  25302.52325657 -.00000433  00000+0 -16961-4 0  9999
2 55490  43.0043 331.6509 0000894 265.4406  94.6335 15.02534425150876
STARLINK-5364           
1 55491U 23015AU  25303.97296411  .00000078  00000+0  20847-4 0  9996
2 55491  43.0028 297.6091 0001354 274.8438  85.2250 15.02536050151394
STARLINK-5013           
1 55492U 23015AV  25302.78138996  .00000526  00000+0  53964-4 0  9992
2 55492  43.0007 330.1523 0001015 275.8513  84.2213 15.02540108150918
